{
    "links": {
        "self": "http://www.neowsapp.com/rest/v1/neo/54028097?api_key=iIulBulltgU6a56xZRHN4H3l9WmuAYTsLGpBGhQ2"
    },
    "id": "54028097",
    "neo_reference_id": "54028097",
    "name": "(2020 NE)",
    "designation": "2020 NE",
    "nasa_jpl_url": "http://ssd.jpl.nasa.gov/sbdb.cgi?sstr=54028097",
    "absolute_magnitude_h": 21.529,
    "estimated_diameter": {
        "kilometers": {
            "estimated_diameter_min": 0.1314483008,
            "estimated_diameter_max": 0.2939273362
        },
        "meters": {
            "estimated_diameter_min": 131.4483008443,
            "estimated_diameter_max": 293.9273362148
        },
        "miles": {
            "estimated_diameter_min": 0.0816781621,
            "estimated_diameter_max": 0.1826379228
        },
        "feet": {
            "estimated_diameter_min": 431.2608433421,
            "estimated_diameter_max": 964.3285617469
        }
    },
    "is_potentially_hazardous_asteroid": false,
    "close_approach_data": [
        {
            "close_approach_date": "2017-06-14",
            "close_approach_date_full": "2017-Jun-14 13:00",
            "epoch_date_close_approach": 1497445200000,
            "relative_velocity": {
                "kilometers_per_second": "34.155717233",
                "kilometers_per_hour": "122960.5820389444",
                "miles_per_hour": "76402.9238785874"
            },
            "miss_distance": {
                "astronomical": "0.4799708308",
                "lunar": "186.7086531812",
                "kilometers": "71802613.949810396",
                "miles": "44616075.4335036248"
            },
            "orbiting_body": "Earth"
        },
        {
            "close_approach_date": "2020-07-10",
            "close_approach_date_full": "2020-Jul-10 10:31",
            "epoch_date_close_approach": 1594377060000,
            "relative_velocity": {
                "kilometers_per_second": "22.999464561",
                "kilometers_per_hour": "82798.072419451",
                "miles_per_hour": "51447.5022764083"
            },
            "miss_distance": {
                "astronomical": "0.2251098892",
                "lunar": "87.5677468988",
                "kilometers": "33675959.940256004",
                "miles": "20925271.1891566952"
            },
            "orbiting_body": "Earth"
        }
    ],
    "orbital_data": {
        "orbit_id": "3",
        "orbit_determination_date": "2020-07-25 06:40:14",
        "first_observation_date": "2020-06-23",
        "last_observation_date": "2020-07-25",
        "data_arc_in_days": 32,
        "observations_used": 39,
        "orbit_uncertainty": "7",
        "minimum_orbit_intersection": ".109657",
        "jupiter_tisserand_invariant": "3.218",
        "epoch_osculation": "2459000.5",
        "eccentricity": ".5785113037939915",
        "semi_major_axis": "2.130791942912227",
        "inclination": "42.01953062908575",
        "ascending_node_longitude": "98.03956088456874",
        "orbital_period": "1136.082828739354",
        "perihelion_distance": ".8981047179043422",
        "perihelion_argument": "245.9862469306151",
        "aphelion_distance": "3.363479167920111",
        "perihelion_time": "2459094.307784312178",
        "mean_anomaly": "330.2743484030494",
        "mean_motion": ".3168783040224903",
        "equinox": "J2000",
        "orbit_class": {
            "orbit_class_type": "APO",
            "orbit_class_description": "Near-Earth asteroid orbits which cross the Earth’s orbit similar to that of 1862 Apollo",
            "orbit_class_range": "a (semi-major axis) > 1.0 AU; q (perihelion) < 1.017 AU"
        }
    },
    "is_sentry_object": false
}